{
  "type": "FeatureCollection",
  "name": "Rizal_Palawan_Barangays",
  "crs": { "type": "name", "properties": { "name": "urn:ogc:def:crs:OGC:1.3:CRS84" } },
  "features": [
    {
      "type": "Feature",
      "properties": { "name": "Bunog" },
      "geometry": {
        "type": "Polygon",
        "coordinates": [[[117.28, 8.72], [117.34, 8.72], [117.34, 8.66], [117.28, 8.66], [117.28, 8.72]]]
      }
    },
    {
      "type": "Feature",
      "properties": { "name": "Campong Ulay" },
      "geometry": {
        "type": "Polygon",
        "coordinates": [[[117.34, 8.72], [117.40, 8.72], [117.40, 8.66], [117.34, 8.66], [117.34, 8.72]]]
      }
    },
    {
      "type": "Feature",
      "properties": { "name": "Candawaga" },
      "geometry": {
        "type": "Polygon",
        "coordinates": [[[117.22, 8.66], [117.30, 8.66], [117.30, 8.58], [117.22, 8.58], [117.22, 8.66]]]
      }
    },
    {
      "type": "Feature",
      "properties": { "name": "Canipaan" },
      "geometry": {
        "type": "Polygon",
        "coordinates": [[[117.30, 8.66], [117.38, 8.66], [117.38, 8.58], [117.30, 8.58], [117.30, 8.66]]]
      }
    },
    {
      "type": "Feature",
      "properties": { "name": "Culasian" },
      "geometry": {
        "type": "Polygon",
        "coordinates": [[[117.38, 8.66], [117.46, 8.66], [117.46, 8.58], [117.38, 8.58], [117.38, 8.66]]]
      }
    },
    {
      "type": "Feature",
      "properties": { "name": "Iraan" },
      "geometry": {
        "type": "Polygon",
        "coordinates": [[[117.26, 8.58], [117.34, 8.58], [117.34, 8.50], [117.26, 8.50], [117.26, 8.58]]]
      }
    },
    {
      "type": "Feature",
      "properties": { "name": "Latud" },
      "geometry": {
        "type": "Polygon",
        "coordinates": [[[117.34, 8.58], [117.42, 8.58], [117.42, 8.50], [117.34, 8.50], [117.34, 8.58]]]
      }
    },
    {
      "type": "Feature",
      "properties": { "name": "Panalingaan" },
      "geometry": {
        "type": "Polygon",
        "coordinates": [[[117.20, 8.50], [117.28, 8.50], [117.28, 8.42], [117.20, 8.42], [117.20, 8.50]]]
      }
    },
    {
      "type": "Feature",
      "properties": { "name": "Punta Baja (Poblacion)" },
      "geometry": {
        "type": "Polygon",
        "coordinates": [[[117.28, 8.50], [117.36, 8.50], [117.36, 8.42], [117.28, 8.42], [117.28, 8.50]]]
      }
    },
    {
      "type": "Feature",
      "properties": { "name": "Ransang" },
      "geometry": {
        "type": "Polygon",
        "coordinates": [[[117.36, 8.50], [117.44, 8.50], [117.44, 8.42], [117.36, 8.42], [117.36, 8.50]]]
      }
    },
    {
      "type": "Feature",
      "properties": { "name": "Taburi" },
      "geometry": {
        "type": "Polygon",
        "coordinates": [[[117.24, 8.42], [117.34, 8.42], [117.34, 8.34], [117.24, 8.34], [117.24, 8.42]]]
      }
    }
  ]
}
